[
    {
        "Altitude(m)": 604234.5912425568,
        "Argument of Periapsis(deg)": 0.0,
        "Eccentricity": 0.0,
        "Inclination(deg)": 60.0,
        "Latitude(deg)": 14.117133188761645,
        "Longitude(deg)": -53.272683784857186,
        "Mean Anomaly(deg)": -196.36359999999996,
        "RAAN(deg)": 235.0,
        "Satellite Name": "Test1 1044",
        "Satellite Number": 1044,
        "Semi-Major Axis(m)": 6980739.136638005,
        "Time(s)": 0
    },
    {
        "Altitude(m)": 604223.4204783601,
        "Argument of Periapsis(deg)": 0.00010418945913296404,
        "Eccentricity": 0.0,
        "Inclination(deg)": 60.0,
        "Latitude(deg)": 13.582269777201326,
        "Longitude(deg)": -52.98577429354842,
        "Mean Anomaly(deg)": -195.7434938545382,
        "RAAN(deg)": 234.99957995086027,
        "Satellite Name": "Test1 1044",
        "Satellite Number": 1044,
        "Semi-Major Axis(m)": 6980739.136638005,
        "Time(s)": 10
    }
]